[{"OBJECT_NAME":"STARLINK-6111","OBJECT_ID":"2023-090B","EPOCH":"2026-03-09T20:21:38.577888","MEAN_MOTION":15.02537156,"ECCENTRICITY":0.0001435,"INCLINATION":43.0042,"RA_OF_ASC_NODE":274.1027,"ARG_OF_PERICENTER":273.1088,"MEAN_ANOMALY":86.959,"EPHEMERIS_TYPE":0,"CLASSIFICATION_TYPE":"U","NORAD_CAT_ID":57102,"ELEMENT_SET_NO":999,"REV_AT_EPOCH":15043,"BSTAR":7.033728e-6,"MEAN_MOTION_DOT":-1.09e-6,"MEAN_MOTION_DDOT":0},{"OBJECT_NAME":"KUIPER-00179","OBJECT_ID":"2025-301D","EPOCH":"2026-03-09T22:00:01.999584","MEAN_MOTION":15.06426136,"ECCENTRICITY":0.00027009,"INCLINATION":51.8878,"RA_OF_ASC_NODE":65.7875,"ARG_OF_PERICENTER":79.7828,"MEAN_ANOMALY":141.5104,"EPHEMERIS_TYPE":0,"CLASSIFICATION_TYPE":"U","NORAD_CAT_ID":67136,"ELEMENT_SET_NO":999,"REV_AT_EPOCH":537,"BSTAR":-0.078767589,"MEAN_MOTION_DOT":-0.01086026,"MEAN_MOTION_DDOT":0}]
